UNKNOWN                 
1 81865U          26074.41033859  .00001096  00000+0  88862-3 0  9990
2 81865  82.8054 317.1309 0062698  99.5814  23.5914 13.88289181621404
UNKNOWN                 
1 81893U          26074.44689983  .00001075  00000+0  11387-2 0  9993
2 81893 100.0583  67.9175 0021745  33.4248 326.8268 13.76926533616830
UNKNOWN                 
1 81899U          26077.57444885  .00001624  00000+0  38512-2 0  9995
2 81899 102.4113 201.6519 0169041  11.3791 349.1067 13.20510711591631
UNKNOWN                 
1 81921U          26076.60706436  .00000441  00000+0  21159-3 0  9993
2 81921  65.7081 197.7430 0843365  73.4646 295.7253 13.15481724 38268
UNKNOWN                 
1 81946U          26076.71447402  .00000087  00000+0  45530-3 0  9992
2 81946  66.4193 329.9365 0678132 305.6587  78.3568 12.42646831559684
UNKNOWN                 
1 81964U          26077.47154729  .00000243  00000+0  23446-3 0  9999
2 81964  66.5866  21.0217 0034542  11.4100 348.7755 13.95865279627408
UNKNOWN                 
1 81969U          26076.10937100  .00007488  00000+0  41709-3 0  9995
2 81969  86.6814 112.4060 0005268 151.9242 208.2283 15.13453162454433
UNKNOWN                 
1 81995U          26074.85285677  .00005044  00000+0  94160-3 0  9994
2 81995  65.7455 240.1385 0515588 251.2947 103.1521 14.05120397617303
UNKNOWN                 
1 82043U          26075.85646913  .00003639  00000+0  99649-3 0  9999
2 82043  97.9386 221.7492 0230655 160.1395 200.8957 14.33164002587324
UNKNOWN                 
1 82073U          26077.41642765  .00001611  00000+0  41485-3 0  9990
2 82073  97.7381 149.4166 0204997 355.9046   4.0458 14.39514703588886
UNKNOWN                 
1 82139U          26074.65270478  .00002351  00000+0  11745-2 0  9991
2 82139  99.0119 148.6336 0084537 139.7305 221.0171 14.15947691493265
UNKNOWN                 
1 82162U          26077.56390805  .00002702  00000+0  39842-2 0  9995
2 82162 100.4713  12.5856 0061595 357.5097   2.5722 13.54410863517271
