CCSDS_OMM_VERS = 2.0
CREATION_DATE  = 
ORIGINATOR     = 

OBJECT_NAME    = UNKNOWN
OBJECT_ID      = 
CENTER_NAME    = EARTH
REF_FRAME      = TEME
TIME_SYSTEM    = UTC
MEAN_ELEMENT_THEORY = SGP/SGP4

EPOCH          = 2026-03-15T09:50:53.254176
MEAN_MOTION    = 13.88289181
ECCENTRICITY   = .0062698
INCLINATION    = 82.8054
RA_OF_ASC_NODE = 317.1309
ARG_OF_PERICENTER = 99.5814
MEAN_ANOMALY   = 23.5914

EPHEMERIS_TYPE = 0
CLASSIFICATION_TYPE = U
NORAD_CAT_ID   = 81865
ELEMENT_SET_NO = 999
REV_AT_EPOCH   = 62140
BSTAR          = .88862E-3
MEAN_MOTION_DOT = .1096E-4
MEAN_MOTION_DDOT = 0

CCSDS_OMM_VERS = 2.0
CREATION_DATE  = 
ORIGINATOR     = 

OBJECT_NAME    = UNKNOWN
OBJECT_ID      = 
CENTER_NAME    = EARTH
REF_FRAME      = TEME
TIME_SYSTEM    = UTC
MEAN_ELEMENT_THEORY = SGP/SGP4

EPOCH          = 2026-03-15T10:43:32.145312
MEAN_MOTION    = 13.76926533
ECCENTRICITY   = .0021745
INCLINATION    = 100.0583
RA_OF_ASC_NODE = 67.9175
ARG_OF_PERICENTER = 33.4248
MEAN_ANOMALY   = 326.8268

EPHEMERIS_TYPE = 0
CLASSIFICATION_TYPE = U
NORAD_CAT_ID   = 81893
ELEMENT_SET_NO = 999
REV_AT_EPOCH   = 61683
BSTAR          = .11387E-2
MEAN_MOTION_DOT = .1075E-4
MEAN_MOTION_DDOT = 0

CCSDS_OMM_VERS = 2.0
CREATION_DATE  = 
ORIGINATOR     = 

OBJECT_NAME    = UNKNOWN
OBJECT_ID      = 
CENTER_NAME    = EARTH
REF_FRAME      = TEME
TIME_SYSTEM    = UTC
MEAN_ELEMENT_THEORY = SGP/SGP4

EPOCH          = 2026-03-18T13:47:12.380640
MEAN_MOTION    = 13.20510711
ECCENTRICITY   = .0169041
INCLINATION    = 102.4113
RA_OF_ASC_NODE = 201.6519
ARG_OF_PERICENTER = 11.3791
MEAN_ANOMALY   = 349.1067

EPHEMERIS_TYPE = 0
CLASSIFICATION_TYPE = U
NORAD_CAT_ID   = 81899
ELEMENT_SET_NO = 999
REV_AT_EPOCH   = 59163
BSTAR          = .38512E-2
MEAN_MOTION_DOT = .1624E-4
MEAN_MOTION_DDOT = 0

CCSDS_OMM_VERS = 2.0
CREATION_DATE  = 
ORIGINATOR     = 

OBJECT_NAME    = UNKNOWN
OBJECT_ID      = 
CENTER_NAME    = EARTH
REF_FRAME      = TEME
TIME_SYSTEM    = UTC
MEAN_ELEMENT_THEORY = SGP/SGP4

EPOCH          = 2026-03-17T14:34:10.360704
MEAN_MOTION    = 13.15481724
ECCENTRICITY   = .0843365
INCLINATION    = 65.7081
RA_OF_ASC_NODE = 197.7430
ARG_OF_PERICENTER = 73.4646
MEAN_ANOMALY   = 295.7253

EPHEMERIS_TYPE = 0
CLASSIFICATION_TYPE = U
NORAD_CAT_ID   = 81921
ELEMENT_SET_NO = 999
REV_AT_EPOCH   = 3826
BSTAR          = .21159E-3
MEAN_MOTION_DOT = .441E-5
MEAN_MOTION_DDOT = 0

CCSDS_OMM_VERS = 2.0
CREATION_DATE  = 
ORIGINATOR     = 

OBJECT_NAME    = UNKNOWN
OBJECT_ID      = 
CENTER_NAME    = EARTH
REF_FRAME      = TEME
TIME_SYSTEM    = UTC
MEAN_ELEMENT_THEORY = SGP/SGP4

EPOCH          = 2026-03-17T17:08:50.555328
MEAN_MOTION    = 12.42646831
ECCENTRICITY   = .0678132
INCLINATION    = 66.4193
RA_OF_ASC_NODE = 329.9365
ARG_OF_PERICENTER = 305.6587
MEAN_ANOMALY   = 78.3568

EPHEMERIS_TYPE = 0
CLASSIFICATION_TYPE = U
NORAD_CAT_ID   = 81946
ELEMENT_SET_NO = 999
REV_AT_EPOCH   = 55968
BSTAR          = .4553E-3
MEAN_MOTION_DOT = .87E-6
MEAN_MOTION_DDOT = 0

CCSDS_OMM_VERS = 2.0
CREATION_DATE  = 
ORIGINATOR     = 

OBJECT_NAME    = UNKNOWN
OBJECT_ID      = 
CENTER_NAME    = EARTH
REF_FRAME      = TEME
TIME_SYSTEM    = UTC
MEAN_ELEMENT_THEORY = SGP/SGP4

EPOCH          = 2026-03-18T11:19:01.685856
MEAN_MOTION    = 13.95865279
ECCENTRICITY   = .0034542
INCLINATION    = 66.5866
RA_OF_ASC_NODE = 21.0217
ARG_OF_PERICENTER = 11.4100
MEAN_ANOMALY   = 348.7755

EPHEMERIS_TYPE = 0
CLASSIFICATION_TYPE = U
NORAD_CAT_ID   = 81964
ELEMENT_SET_NO = 999
REV_AT_EPOCH   = 62740
BSTAR          = .23446E-3
MEAN_MOTION_DOT = .243E-5
MEAN_MOTION_DDOT = 0

CCSDS_OMM_VERS = 2.0
CREATION_DATE  = 
ORIGINATOR     = 

OBJECT_NAME    = UNKNOWN
OBJECT_ID      = 
CENTER_NAME    = EARTH
REF_FRAME      = TEME
TIME_SYSTEM    = UTC
MEAN_ELEMENT_THEORY = SGP/SGP4

EPOCH          = 2026-03-17T02:37:29.654400
MEAN_MOTION    = 15.13453162
ECCENTRICITY   = .0005268
INCLINATION    = 86.6814
RA_OF_ASC_NODE = 112.4060
ARG_OF_PERICENTER = 151.9242
MEAN_ANOMALY   = 208.2283

EPHEMERIS_TYPE = 0
CLASSIFICATION_TYPE = U
NORAD_CAT_ID   = 81969
ELEMENT_SET_NO = 999
REV_AT_EPOCH   = 45443
BSTAR          = .41709E-3
MEAN_MOTION_DOT = .7488E-4
MEAN_MOTION_DDOT = 0

CCSDS_OMM_VERS = 2.0
CREATION_DATE  = 
ORIGINATOR     = 

OBJECT_NAME    = UNKNOWN
OBJECT_ID      = 
CENTER_NAME    = EARTH
REF_FRAME      = TEME
TIME_SYSTEM    = UTC
MEAN_ELEMENT_THEORY = SGP/SGP4

EPOCH          = 2026-03-15T20:28:06.824928
MEAN_MOTION    = 14.05120397
ECCENTRICITY   = .0515588
INCLINATION    = 65.7455
RA_OF_ASC_NODE = 240.1385
ARG_OF_PERICENTER = 251.2947
MEAN_ANOMALY   = 103.1521

EPHEMERIS_TYPE = 0
CLASSIFICATION_TYPE = U
NORAD_CAT_ID   = 81995
ELEMENT_SET_NO = 999
REV_AT_EPOCH   = 61730
BSTAR          = .9416E-3
MEAN_MOTION_DOT = .5044E-4
MEAN_MOTION_DDOT = 0

CCSDS_OMM_VERS = 2.0
CREATION_DATE  = 
ORIGINATOR     = 

OBJECT_NAME    = UNKNOWN
OBJECT_ID      = 
CENTER_NAME    = EARTH
REF_FRAME      = TEME
TIME_SYSTEM    = UTC
MEAN_ELEMENT_THEORY = SGP/SGP4

EPOCH          = 2026-03-16T20:33:18.932832
MEAN_MOTION    = 14.33164002
ECCENTRICITY   = .0230655
INCLINATION    = 97.9386
RA_OF_ASC_NODE = 221.7492
ARG_OF_PERICENTER = 160.1395
MEAN_ANOMALY   = 200.8957

EPHEMERIS_TYPE = 0
CLASSIFICATION_TYPE = U
NORAD_CAT_ID   = 82043
ELEMENT_SET_NO = 999
REV_AT_EPOCH   = 58732
BSTAR          = .99649E-3
MEAN_MOTION_DOT = .3639E-4
MEAN_MOTION_DDOT = 0

CCSDS_OMM_VERS = 2.0
CREATION_DATE  = 
ORIGINATOR     = 

OBJECT_NAME    = UNKNOWN
OBJECT_ID      = 
CENTER_NAME    = EARTH
REF_FRAME      = TEME
TIME_SYSTEM    = UTC
MEAN_ELEMENT_THEORY = SGP/SGP4

EPOCH          = 2026-03-18T09:59:39.348960
MEAN_MOTION    = 14.39514703
ECCENTRICITY   = .0204997
INCLINATION    = 97.7381
RA_OF_ASC_NODE = 149.4166
ARG_OF_PERICENTER = 355.9046
MEAN_ANOMALY   = 4.0458

EPHEMERIS_TYPE = 0
CLASSIFICATION_TYPE = U
NORAD_CAT_ID   = 82073
ELEMENT_SET_NO = 999
REV_AT_EPOCH   = 58888
BSTAR          = .41485E-3
MEAN_MOTION_DOT = .1611E-4
MEAN_MOTION_DDOT = 0

CCSDS_OMM_VERS = 2.0
CREATION_DATE  = 
ORIGINATOR     = 

OBJECT_NAME    = UNKNOWN
OBJECT_ID      = 
CENTER_NAME    = EARTH
REF_FRAME      = TEME
TIME_SYSTEM    = UTC
MEAN_ELEMENT_THEORY = SGP/SGP4

EPOCH          = 2026-03-15T15:39:53.692992
MEAN_MOTION    = 14.15947691
ECCENTRICITY   = .0084537
INCLINATION    = 99.0119
RA_OF_ASC_NODE = 148.6336
ARG_OF_PERICENTER = 139.7305
MEAN_ANOMALY   = 221.0171

EPHEMERIS_TYPE = 0
CLASSIFICATION_TYPE = U
NORAD_CAT_ID   = 82139
ELEMENT_SET_NO = 999
REV_AT_EPOCH   = 49326
BSTAR          = .11745E-2
MEAN_MOTION_DOT = .2351E-4
MEAN_MOTION_DDOT = 0

CCSDS_OMM_VERS = 2.0
CREATION_DATE  = 
ORIGINATOR     = 

OBJECT_NAME    = UNKNOWN
OBJECT_ID      = 
CENTER_NAME    = EARTH
REF_FRAME      = TEME
TIME_SYSTEM    = UTC
MEAN_ELEMENT_THEORY = SGP/SGP4

EPOCH          = 2026-03-18T13:32:01.655520
MEAN_MOTION    = 13.54410863
ECCENTRICITY   = .0061595
INCLINATION    = 100.4713
RA_OF_ASC_NODE = 12.5856
ARG_OF_PERICENTER = 357.5097
MEAN_ANOMALY   = 2.5722

EPHEMERIS_TYPE = 0
CLASSIFICATION_TYPE = U
NORAD_CAT_ID   = 82162
ELEMENT_SET_NO = 999
REV_AT_EPOCH   = 51727
BSTAR          = .39842E-2
MEAN_MOTION_DOT = .2702E-4
MEAN_MOTION_DDOT = 0

